{
  "norad_id": 51104,
  "name": "STARLINK-3366",
  "history": [
    {
      "epoch": "2026-04-16T18:16:18.492096Z",
      "apogee_km": 540.5240147607201,
      "perigee_km": 538.9564237828326,
      "latitude_deg": 1.623793696725434e-05,
      "longitude_deg": -0.7711332874368836,
      "height_km": 540.495363349431,
      "semi_major_axis_km": 6917.877219271776,
      "eccentricity": 0.0001133,
      "inclination_deg": 53.2159,
      "raan_deg": 118.2103,
      "arg_perigee_deg": 79.6558,
      "mean_anomaly_deg": 280.4562,
      "mean_motion_rev_day": 15.08841037
    },
    {
      "epoch": "2026-04-17T18:07:05.579616Z",
      "apogee_km": 540.5591260422634,
      "perigee_km": 538.9301032796429,
      "latitude_deg": 1.761054285220831e-06,
      "longitude_deg": -3.9069781178111507,
      "height_km": 540.5000306622854,
      "semi_major_axis_km": 6917.881614660952,
      "eccentricity": 0.00011774,
      "inclination_deg": 53.2161,
      "raan_deg": 113.75,
      "arg_perigee_deg": 80.0721,
      "mean_anomaly_deg": 280.0404,
      "mean_motion_rev_day": 15.08839599
    },
    {
      "epoch": "2026-04-18T05:14:47.598144Z",
      "apogee_km": 540.5749584624882,
      "perigee_km": 538.9175719898058,
      "latitude_deg": -2.3906640087185713e-05,
      "longitude_deg": -173.3710987430706,
      "height_km": 540.5392714530317,
      "semi_major_axis_km": 6917.883265226146,
      "eccentricity": 0.00011979,
      "inclination_deg": 53.2161,
      "raan_deg": 111.668,
      "arg_perigee_deg": 82.8739,
      "mean_anomaly_deg": 277.2389,
      "mean_motion_rev_day": 15.08839059
    },
    {
      "epoch": "2026-04-19T06:40:57.914112Z",
      "apogee_km": 540.5937545728366,
      "perigee_km": 538.908557018085,
      "latitude_deg": 2.641198484906111e-05,
      "longitude_deg": 159.28412754587126,
      "height_km": 540.4739408858891,
      "semi_major_axis_km": 6917.88815579546,
      "eccentricity": 0.0001218,
      "inclination_deg": 53.2166,
      "raan_deg": 106.9108,
      "arg_perigee_deg": 78.1474,
      "mean_anomaly_deg": 281.9655,
      "mean_motion_rev_day": 15.08837459
    },
    {
      "epoch": "2026-04-20T06:31:45.520896Z",
      "apogee_km": 540.5912244868705,
      "perigee_km": 538.9461465148588,
      "latitude_deg": 5.095693642391773e-05,
      "longitude_deg": 156.14593937219652,
      "height_km": 540.4679479640088,
      "semi_major_axis_km": 6917.905685500865,
      "eccentricity": 0.0001189,
      "inclination_deg": 53.2168,
      "raan_deg": 102.4503,
      "arg_perigee_deg": 76.1676,
      "mean_anomaly_deg": 283.9449,
      "mean_motion_rev_day": 15.08831724
    },
    {
      "epoch": "2026-04-21T15:54:51.488352Z",
      "apogee_km": 540.6354353470415,
      "perigee_km": 538.8824405163687,
      "latitude_deg": 1.0772198747927804e-06,
      "longitude_deg": 7.753961679023708,
      "height_km": 540.4004449676567,
      "semi_major_axis_km": 6917.895937931705,
      "eccentricity": 0.0001267,
      "inclination_deg": 53.2155,
      "raan_deg": 96.2043,
      "arg_perigee_deg": 73.1408,
      "mean_anomaly_deg": 286.9723,
      "mean_motion_rev_day": 15.08834913
    },
    {
      "epoch": "2026-04-22T15:45:38.516256Z",
      "apogee_km": 540.6388902246927,
      "perigee_km": 538.866526881362,
      "latitude_deg": 6.510708269870102e-05,
      "longitude_deg": 4.619120499997113,
      "height_km": 540.4516829140154,
      "semi_major_axis_km": 6917.889708553027,
      "eccentricity": 0.0001281,
      "inclination_deg": 53.2162,
      "raan_deg": 91.7447,
      "arg_perigee_deg": 77.1723,
      "mean_anomaly_deg": 282.9413,
      "mean_motion_rev_day": 15.08836951
    },
    {
      "epoch": "2026-04-23T10:50:16.157760Z",
      "apogee_km": 540.654303412557,
      "perigee_km": 538.8355922484716,
      "latitude_deg": 7.352413932901895e-05,
      "longitude_deg": 74.11021593427442,
      "height_km": 540.4427492265215,
      "semi_major_axis_km": 6917.881947830514,
      "eccentricity": 0.00013145,
      "inclination_deg": 53.2164,
      "raan_deg": 88.1761,
      "arg_perigee_deg": 77.4305,
      "mean_anomaly_deg": 282.6835,
      "mean_motion_rev_day": 15.0883949
    },
    {
      "epoch": "2026-04-24T20:13:21.980928Z",
      "apogee_km": 540.6628058378592,
      "perigee_km": 538.8240332223477,
      "latitude_deg": 5.512855856663531e-05,
      "longitude_deg": -74.27993389222148,
      "height_km": 540.4560061271267,
      "semi_major_axis_km": 6917.880419530103,
      "eccentricity": 0.0001329,
      "inclination_deg": 53.2167,
      "raan_deg": 81.9313,
      "arg_perigee_deg": 78.5112,
      "mean_anomaly_deg": 281.603,
      "mean_motion_rev_day": 15.0883999
    },
    {
      "epoch": "2026-04-25T20:04:09.149664Z",
      "apogee_km": 540.6831237248998,
      "perigee_km": 538.8194446211428,
      "latitude_deg": 6.313329090375831e-05,
      "longitude_deg": -77.41620284808072,
      "height_km": 540.4894875422735,
      "semi_major_axis_km": 6917.888284173021,
      "eccentricity": 0.0001347,
      "inclination_deg": 53.2168,
      "raan_deg": 77.4709,
      "arg_perigee_deg": 80.2706,
      "mean_anomaly_deg": 279.8439,
      "mean_motion_rev_day": 15.08837417
    },
    {
      "epoch": "2026-04-26T21:30:19.545120Z",
      "apogee_km": 540.7032100271681,
      "perigee_km": 538.8191896314274,
      "latitude_deg": -2.3909419508505907e-05,
      "longitude_deg": -104.76200995489572,
      "height_km": 540.5130834198679,
      "semi_major_axis_km": 6917.8981998292975,
      "eccentricity": 0.00013617,
      "inclination_deg": 53.217,
      "raan_deg": 72.7131,
      "arg_perigee_deg": 81.2191,
      "mean_anomaly_deg": 278.8955,
      "mean_motion_rev_day": 15.08834173
    },
    {
      "epoch": "2026-04-27T05:27:15.176736Z",
      "apogee_km": 540.7031976424405,
      "perigee_km": 538.8090785012373,
      "latitude_deg": 5.7601840053607405e-05,
      "longitude_deg": 134.19290743139737,
      "height_km": 540.5135581254448,
      "semi_major_axis_km": 6917.893138071839,
      "eccentricity": 0.0001369,
      "inclination_deg": 53.2171,
      "raan_deg": 71.2262,
      "arg_perigee_deg": 81.6058,
      "mean_anomaly_deg": 278.509,
      "mean_motion_rev_day": 15.08835829
    },
    {
      "epoch": "2026-04-28T13:14:58.098912Z",
      "apogee_km": 540.7004563860692,
      "perigee_km": 538.8049546067623,
      "latitude_deg": 1.586833160859602e-05,
      "longitude_deg": 10.011150256021148,
      "height_km": 540.5273565871832,
      "semi_major_axis_km": 6917.889705496415,
      "eccentricity": 0.000137,
      "inclination_deg": 53.2174,
      "raan_deg": 65.2791,
      "arg_perigee_deg": 82.6616,
      "mean_anomaly_deg": 277.4532,
      "mean_motion_rev_day": 15.08836952
    },
    {
      "epoch": "2026-04-29T13:05:46.771008Z",
      "apogee_km": 540.681342233961,
      "perigee_km": 538.9103514251728,
      "latitude_deg": 1.9467649586110323e-05,
      "longitude_deg": 6.869197521173284,
      "height_km": 540.6719377924027,
      "semi_major_axis_km": 6917.932846829567,
      "eccentricity": 0.000128,
      "inclination_deg": 53.2173,
      "raan_deg": 60.8193,
      "arg_perigee_deg": 88.7248,
      "mean_anomaly_deg": 271.3891,
      "mean_motion_rev_day": 15.08822838
    },
    {
      "epoch": "2026-04-30T04:59:38.353056Z",
      "apogee_km": 540.6424218774346,
      "perigee_km": 538.9295441468421,
      "latitude_deg": 2.4477636628719478e-06,
      "longitude_deg": 124.77756591920878,
      "height_km": 540.6976459222481,
      "semi_major_axis_km": 6917.9229830121385,
      "eccentricity": 0.0001238,
      "inclination_deg": 53.2174,
      "raan_deg": 57.8455,
      "arg_perigee_deg": 91.0567,
      "mean_anomaly_deg": 269.0567,
      "mean_motion_rev_day": 15.08826065
    },
    {
      "epoch": "2026-05-02T04:41:11.041152Z",
      "apogee_km": 540.5746350519703,
      "perigee_km": 538.8866753441025,
      "latitude_deg": 2.651470730195717e-05,
      "longitude_deg": 118.51102344452197,
      "height_km": 540.6805442314221,
      "semi_major_axis_km": 6917.867655198036,
      "eccentricity": 0.000122,
      "inclination_deg": 53.218,
      "raan_deg": 48.9238,
      "arg_perigee_deg": 93.6634,
      "mean_anomaly_deg": 266.4498,
      "mean_motion_rev_day": 15.08844166
    },
    {
      "epoch": "2026-05-03T20:25:49.391040Z",
      "apogee_km": 540.7102162410574,
      "perigee_km": 538.7884274208518,
      "latitude_deg": 5.7468649646283545e-05,
      "longitude_deg": -126.71397660501998,
      "height_km": 540.6325561528195,
      "semi_major_axis_km": 6917.886321830954,
      "eccentricity": 0.0001389,
      "inclination_deg": 53.2178,
      "raan_deg": 41.4908,
      "arg_perigee_deg": 89.2567,
      "mean_anomaly_deg": 270.8585,
      "mean_motion_rev_day": 15.08838059
    },
    {
      "epoch": "2026-05-04T20:16:36.690240Z",
      "apogee_km": 540.7874183783324,
      "perigee_km": 538.7438699372478,
      "latitude_deg": -2.979611590187751e-05,
      "longitude_deg": -129.85136475995034,
      "height_km": 540.6484066202518,
      "semi_major_axis_km": 6917.90264415779,
      "eccentricity": 0.0001477,
      "inclination_deg": 53.2179,
      "raan_deg": 37.0299,
      "arg_perigee_deg": 89.2802,
      "mean_anomaly_deg": 270.8359,
      "mean_motion_rev_day": 15.08832719
    },
    {
      "epoch": "2026-05-05T18:32:00.636576Z",
      "apogee_km": 540.7825075752644,
      "perigee_km": 538.7265102188203,
      "latitude_deg": 2.9732291785640053e-06,
      "longitude_deg": -108.7779685360773,
      "height_km": 540.7272804723445,
      "semi_major_axis_km": 6917.8915088970425,
      "eccentricity": 0.0001486,
      "inclination_deg": 53.2182,
      "raan_deg": 32.8671,
      "arg_perigee_deg": 94.3042,
      "mean_anomaly_deg": 265.812,
      "mean_motion_rev_day": 15.08836362
    }
  ]
}